TDRS 3                  
1 19548U 88091B   23153.02688497 -.00000289  00000+0  00000+0 0  9999
2 19548  13.4564 348.6594 0035190 339.4712 243.0038  1.00272700114249
FLTSATCOM 8 (USA 46)    
1 20253U 89077A   23143.14411640 -.00000081  00000+0  00000+0 0  9995
2 20253  12.7587 358.0109 0006592 110.1214 256.0976  1.00273579249376
SKYNET 4C               
1 20776U 90079A   23153.21368928  .00000135  00000+0  00000+0 0  9997
2 20776  13.6993 357.4819 0003060  76.1508 287.1324  1.00269983119756
TDRS 5                  
1 21639U 91054B   23153.53999480  .00000093  00000+0  00000+0 0  9991
2 21639  14.2076   1.9502 0026994   1.5086 274.0263  1.00275388116578
TDRS 6                  
1 22314U 93003B   23153.24189987 -.00000285  00000+0  00000+0 0  9993
2 22314  14.1501   5.2310 0011387 130.4565 156.0189  1.00274609111261
UFO 2 (USA 95)          
1 22787U 93056A   23153.25882565  .00000137  00000+0  00000+0 0  9993
2 22787  11.5532   9.3203 0003101  59.0039 304.0200  1.00274316107419
USA 99 (MILSTAR-1 1)    
1 22988U 94009A   23153.12723076 -.00000187  00000+0  00000+0 0  9998
2 22988  15.9087  39.4416 0002613  26.8997 139.8367  1.00272297 21821
UFO 4 (USA 108)         
1 23467U 95003A   23153.39632892 -.00000010  00000+0  00000+0 0  9995
2 23467   9.7979  16.6753 0004905  78.1985 110.6952  1.00271750103819
AMSC 1                  
1 23553U 95019A   23153.24428564 -.00000082  00000+0  00000+0 0  9990
2 23553  12.2725  23.9090 0005263  41.4905 165.4797  1.00272544103032
TDRS 7                  
1 23613U 95035B   23153.59347497 -.00000193  00000+0  00000+0 0  9991
2 23613  13.8400 355.9579 0029890  61.8623 131.4446  1.00275497102113
USA 115 (MILSTAR-1 2)   
1 23712U 95060A   23153.21098355 -.00000009  00000+0  00000+0 0  9990
2 23712  13.6591  11.7487 0001461  55.1266 139.5254  1.00270049 21743
INMARSAT 3-F1           
1 23839U 96020A   23153.23174514 -.00000272  00000+0  00000+0 0  9993
2 23839   8.2667  55.7598 0007523  36.5402 194.9043  0.99994416 99146
INMARSAT 3-F2           
1 24307U 96053A   23153.49033862  .00000093  00000+0  00000+0 0  9998
2 24307   7.3149  64.2357 0010024  16.3707 179.1180  0.99998648 97814
AMC-1 (GE-1)            
1 24315U 96054A   23153.50891240  .00000080  00000+0  00000+0 0  9998
2 24315   6.4507  70.0801 0004146  11.6771 221.2777  1.00273474 97881
INMARSAT 3-F3           
1 24674U 96070A   23153.02542216 -.00000061  00000+0  00000+0 0  9997
2 24674   7.8914  59.2412 0006299  24.4322 255.7223  0.99978679 96791
GALAXY 25 (G-25)        
1 24812U 97026A   23153.13591104 -.00000147  00000+0  00000+0 0  9990
2 24812   4.5700  80.1266 0013173 356.4453 223.3821  0.99038222 95216
INTELSAT 5 (IS-5)       
1 24916U 97046A   23153.58435579 -.00000048  00000+0  00000+0 0  9999
2 24916   7.9793  58.5219 0001981  17.1583 191.5871  1.00272777 94483
AMC-3 (GE-3)            
1 24936U 97050A   23153.29420166 -.00000242  00000+0  00000+0 0  9996
2 24936   5.4042  76.1000 0003163 345.5461 222.7751  1.00271309 41291
USA 134                 
1 25019U 97065A   23153.26507918 -.00000048  00000+0  00000+0 0  9997
2 25019  11.4594  29.3081 0004884  24.0391 180.1294  1.00272226 21818
ASTRA 1G                
1 25071U 97076A   23152.94250819  .00000131  00000+0  00000+0 0  9998
2 25071   7.0479  65.5009 0004474   5.9582 177.3959  1.00273664 93368
INMARSAT 3-F5           
1 25153U 98006B   23153.24562896 -.00000273  00000+0  00000+0 0  9996
2 25153   7.1837  63.2308 0005215   1.5837 220.0135  1.00275578 92754
UFO 8 (USA 138)         
1 25258U 98016A   23153.21952083 -.00000115  00000+0  00000+0 0  9996
2 25258   9.8124  28.4495 0001447  68.4012 128.5270  1.00392149 92710
ASTRA 2A                
1 25462U 98050A   23153.10813399  .00000088  00000+0  00000+0 0  9993
2 25462   4.2820  81.7633 0003537 344.0837 280.5973  1.00271215 35193
SKYNET 4E               
1 25639U 99009B   23153.35466153 -.00000022  00000+0  00000+0 0  9992
2 25639  11.4267  15.0800 0002009  55.8690 306.1025  1.00274556 40254
ABS-6                   
1 25924U 99053A   23153.57974987 -.00000100  00000+0  00000+0 0  9998
2 25924   0.0430  92.3844 0002536 336.6807 189.4163  1.00269752 86705
UFO 10 (USA 146)        
1 25967U 99063A   23153.42063323 -.00000173  00000+0  00000+0 0  9993
2 25967   9.1484  32.2058 0004171  64.1601 282.9078  1.00271960 86206
GALAXY 11 (G-11)        
1 26038U 99071A   23153.38990262 -.00000143  00000+0  00000+0 0  9995
2 26038   3.8919  83.7669 0001712  59.9133 154.1879  1.00271669 85944
USA 148                 
1 26052U 00001A   23152.56908220  .00000053  00000+0  00000+0 0  9997
2 26052  10.0940  40.2594 0000901   7.0420 227.7693  1.00272044 21816
ASIASTAR                
1 26107U 00016A   23153.56578414 -.00000317  00000+0  00000+0 0  9997
2 26107   6.5028  69.0381 0004695   3.0776 127.3372  1.00269988 84788
USA 149 (DSP 20)        
1 26356U 00024A   23153.54357137  .00000105  00000+0  00000+0 0  9991
2 26356  12.3368  19.2553 0001165 332.5705 288.9251  1.00264834 21770
TDRS 8                  
1 26388U 00034A   23153.55588412 -.00000220  00000+0  00000+0 0  9999
2 26388  10.9230  40.1057 0023766 348.3551 151.2538  1.00281612 84035
INTELSAT 9 (IS-9)       
1 26451U 00043A   23153.16100020 -.00000272  00000+0  00000+0 0  9999
2 26451   7.9625  58.7088 0002984  12.1666 187.4660  1.00271091 33009
NSS-11 (AAP-1)          
1 26554U 00059A   23153.56328024  .00000046  00000+0  00000+0 0  9998
2 26554   0.0187 319.0611 0003072 108.2320 202.2690  1.00270065 30150
USA 153                 
1 26575U 00065A   23153.58164397 -.00000312  00000+0  00000+0 0  9998
2 26575   9.6959  43.5700 0000588   6.0856 184.9161  1.00267634 21798
AMC-6 (GE-6)            
1 26580U 00067A   23153.49598510  .00000125  00000+0  00000+0 0  9995
2 26580   0.0230  35.9097 0002834  33.3871 220.9635  1.00271509 82847
INTELSAT 1R (IS-1R)     
1 26608U 00072A   23153.12485889 -.00000121  00000+0  00000+0 0  9993
2 26608   5.3483  76.1742 0001139  81.4126 294.7945  1.00272032 30189
ANIK F1                 
1 26624U 00076A   23153.50535302 -.00000042  00000+0  00000+0 0  9995
2 26624   2.3254  88.3636 0010812 357.5475 237.6063  1.00271307 32003
USA 157 (MILSTAR-2 2)   
1 26715U 01009A   23153.49771597  .00000025  00000+0  00000+0 0  9999
2 26715  10.3517  25.7024 0001958  29.8363 250.2040  1.00267700 20507
EUTELSAT 133 WEST A     
1 26719U 01011A   23153.02693544  .00000169  00000+0  00000+0 0  9999
2 26719   4.5768  79.2771 0003007  16.8356 188.9570  1.00476783 81406
INTELSAT 10 (IS-10)     
1 26766U 01019A   23153.53373542  .00000050  00000+0  00000+0 0  9997
2 26766   6.4114  70.2733 0004486 355.2137 195.1875  1.00272191 34483
INTELSAT 901 (IS-901)   
1 26824U 01024A   23153.30317963 -.00000181  00000+0  00000+0 0  9994
2 26824   0.0273  66.5485 0001061  10.6885 254.9496  1.00271851 11844
ASTRA 2C                
1 26853U 01025A   23153.29420166 -.00000241  00000+0  00000+0 0  9992
2 26853   5.4269  75.9163 0003091 349.7176 218.2982  1.00269079 33904
USA 159 (DSP 21)        
1 26880U 01033A   23153.01211743 -.00000286  00000+0  00000+0 0  9999
2 26880  11.7419  23.6572 0000544   1.7900 179.7278  1.00263096 21825
INTELSAT 902 (IS-902)   
1 26900U 01039A   23153.51376674 -.00000263  00000+0  00000+0 0  9993
2 26900   3.2914  85.0712 0003383   6.9261 293.5940  1.00271320 79556
USA 164 (MILSTAR-2 3)   
1 27168U 02001A   23153.31241911  .00000079  00000+0  00000+0 0  9997
2 27168   9.8847  27.5718 0100657 353.3530   0.9738  1.00274500 21811
INTELSAT 904 (IS-904)   
1 27380U 02007A   23153.31785670 -.00000195  00000+0  00000+0 0  9994
2 27380   4.1161  82.1389 0003206 345.7747 267.5402  1.00270792 40620
NSS-7                   
1 27414U 02019A   23153.10535560 -.00000141  00000+0  00000+0 0  9994
2 27414   6.7201  68.3363 0002505 355.6760 204.2171  1.00272018 77427
DIRECTV 5 (TEMPO 1)     
1 27426U 02023A   23153.50535302 -.00000036  00000+0  00000+0 0  9993
2 27426   2.0197  89.0319 0003486 341.2264 252.2776  1.00271905 76981
INTELSAT 905 (IS-905)   
1 27438U 02027A   23153.42063323 -.00000165  00000+0  00000+0 0  9993
2 27438   3.9397  82.8366 0002871 343.9293 310.8091  1.00271909 40220
GALAXY 3C (G-3C)        
1 27445U 02030A   23153.51091586 -.00000132  00000+0  00000+0 0  9991
2 27445   0.8532  90.7742 0000776  70.3472 178.6939  1.00271578 76810
INTELSAT 906 (IS-906)   
1 27513U 02041A   23153.39493814  .00000034  00000+0  00000+0 0  9995
2 27513   2.9624  86.4221 0004471 355.1890  15.2991  1.00272151 75898
TDRS 10                 
1 27566U 02055A   23153.49460407  .00000103  00000+0  00000+0 0  9998
2 27566   8.8491  47.9180 0008275 349.7606 219.9619  1.00276599 75091
NSS-6                   
1 27603U 02057A   23153.48990280  .00000127  00000+0  00000+0 0  9994
2 27603   2.4997  87.5672 0003276 339.0224 190.9517  1.00270015 74905
NIMIQ 2                 
1 27632U 02062A   23153.45326978 -.00000051  00000+0  00000+0 0  9993
2 27632   6.8261  67.8099 0003997  13.9346 222.9614  1.00273860 74721
USA 167                 
1 27691U 03008A   23153.41368743  .00000067  00000+0  00000+0 0  9997
2 27691   8.7348  52.2922 0001239  15.3990 201.9768  1.00273452 21810
USA 169 (MILSTAR-2 4)   
1 27711U 03012A   23153.53591059 -.00000215  00000+0  00000+0 0  9992
2 27711  10.6507  37.9777 0100377 353.8754 203.9615  1.00271769 21813
GALAXY 12 (G-12)        
1 27715U 03013B   23153.49703108  .00000107  00000+0  00000+0 0  9991
2 27715   4.1495  81.8316 0000958 305.8210 268.1912  1.00200426 40957
ASIASAT 4               
1 27718U 03014A   23153.57248938 -.00000202  00000+0  00000+0 0  9996
2 27718   1.8527  89.6726 0002992 333.7700 180.9860  1.00271237 34162
HELLAS-SAT 2            
1 27811U 03020A   23153.09156192 -.00000063  00000+0  00000+0 0  9999
2 27811   4.5610  80.7851 0006040 349.7432 202.7402  1.00271404 31705
